#dP2021  1 14  0  0  0.00000000      97 __u+U IGS14 FIT  IAC
## 2140 345600.00000000   900.00000000 59228 0.0000000000000
+  121   C01C02C03C04C05C06C07C08C09C10C11C12C13C14C16C19C20
+        C21C22C23C24C25C26C27C28C29C30C32C33C34C35C36C37C38
+        C39C40C43C44C45C46E01E02E03E04E05E07E08E09E11E12E13
+        E14E15E18E19E21E24E25E26E27E30E31E33E36G01G02G03G04
+        G05G06G07G08G09G10G11G12G13G14G15G16G17G18G19G20G21
+        G22G23G24G25G26G27G28G29G30G31G32J01J02J03J07R01R02
+        R03R04R05R07R08R09R11R12R13R14R15R16R17R18R19R20R21
+        R22R24  0  0  0  0  0  0  0  0  0  0  0  0  0  0  0
++        14 13 12 14 13  8 10  8  8  8  8  8  8  7  8  7  7
++         7  7  7  7  7  7  8  8  7  7  7  8  8  8  8  8  9
++        10 10  9  9  9  9  4  4  4  5  4  4  4  4  4  4  4
++         4  4  4  4  5  4  4  4  5  4  4  4  5  3  3  3  4
++         4  3  3  3  3  3  4  3  3  3  3  4  4  3  4  3  3
++         3  3  3  3  3  3  3  3  3  4  3  8  8  8 13  6  6
++         6  6  6  5  5  6  8  6  6  5  5  6  6  6  6  6  6
++         7  6  0  0  0  0  0  0  0  0  0  0  0  0  0  0  0
%c M  cc GPS ccc cccc cccc cccc cccc ccccc ccccc ccccc ccccc
%c cc cc ccc ccc cccc cccc cccc cccc ccccc ccccc ccccc ccccc
%f  1.2500000  1.025000000  0.00000000000  0.000000000000000
%f  0.0000000  0.000000000  0.00000000000  0.000000000000000
%i    0    0    0    0      0      0      0      0         0
%i    0    0    0    0      0      0      0      0         0
/* INFORMATION & ANALYSIS CENTER (IAC)            FINAL DATA
/* S/V CLOCKS ARE ALIGNED TO GNSS TIME                      
/* G:C1WC2W R:C1PC2P E:C1XC5X C:C2IC6I J:C1CC2S             
/* PCV:IGS14_2134 OL/AL:FES2004  NONE     YN ORB:CoN CLK:CoN
*  2021 01 14 16 45  0.00000000
PC01 -34267.319926  24545.467764   -113.287897   -672.753563
PC02   4340.764429  41949.008656    108.385688    594.500532
PC03 -14826.766024  39428.843895   1053.023681    303.210921
PC04 -39611.306850  14418.022534    601.258956   -404.140507
PC05  21858.251537  36060.745127   -173.322282   -551.615723
PC06 -20737.148718  22525.243557 -28778.945309      5.034976
PC07 -16138.885121  38564.463300  -2196.851469   -226.807653
PC08  -3930.363102  26962.299682  32406.497479   -895.644400
PC09  -2217.679731  24466.252232 -34043.099468    803.735183
PC10  -7038.862371  40412.975636   8891.198187   -104.158129
PC11 -27410.107865    898.901826   5104.502477   -885.942272
PC12 -22941.783175  -9939.152668 -12331.163590    729.575157
PC13   8072.256648  34764.960396  22786.100760     97.625862
PC14 -20121.480603   8344.050525  17435.992828    -97.410472
PC16 -18974.540046  22798.998291 -29972.370369   -659.842725
PC19  19645.637774 -17114.029700  -9988.889157    690.775284
PC20  17800.495780     70.029351 -21485.670355   -909.471363
PC21  -5168.786143 -18055.123307  20659.138077   -792.896435
PC22  10214.808275 -24840.040217   7617.443834   -844.649250
PC23   -538.477434  23560.664609 -14953.154277   -881.607508
PC24 -18943.157365 -11739.888983 -16785.276821   -741.887285
PC25 -13333.532163   9382.901601 -22655.533521   -897.229103
PC26 -13939.568246 -24065.268771  -2038.482576    963.009597
PC27  14695.868587  14330.037582  18884.487186    466.345454
PC28  -6392.098488  15114.925966  22576.547480   -121.787884
PC29  23378.579843  -7941.707891 -13003.373244    338.520486
PC30  27151.469189   4444.776540   4598.880495    431.168577
PC32   5291.699203  18025.199056 -20624.138788   -883.534544
PC33 -19592.002267  17113.725306  10088.127077   -914.751935
PC34 -27330.431875  -4108.947025  -3961.886967   -763.251901
PC35   6160.259050 -15338.611407 -22477.792972   -465.867419
PC36  13743.289422  -8708.970016  22691.510392   -777.258096
PC37  12944.053759  24706.929805   1258.286188   -860.631851
PC38  -4053.379335  29011.029960  30396.548628    123.880721
PC39 -15496.505238  24316.299092 -30806.947355     27.413808
PC40 -15487.086522  38793.762443   5174.184825    121.208608
PC43 -23719.635951   7618.917525  12596.482387   -551.892547
PC44 -14997.316380 -14008.601249 -18927.243448    -13.585300
PC45    384.553459 -23528.005509  14979.089784 999999.999999
PC46  18914.702505  11002.638138  17345.354030    452.389045
PE01  -6665.359916  27240.109920  -9492.787236  -1024.697781
PE02   6602.063424 -27267.435858   9399.343934    191.013802
PE03  15168.985238 -20665.669359  14801.113951   -387.289522
PE04   4905.236281  16709.901379 -23936.438561   -688.767144
PE05  26623.479148 -12548.448674  -3147.631085   -312.937213
PE07 -22441.466030  -2811.543050  19092.006217   -487.625734
PE08  -5230.930828 -16410.269524  24069.389925   6062.098560
PE09  22499.725908   2462.527593 -19084.188221   5799.225081
PE11  26448.551114  12915.638443  -3069.032947   6470.671767
PE12  14793.957334  20338.904929  15605.777663   5406.947252
PE13 -26425.752354 -13065.633950   2706.701362    410.248938
PE14 -23184.309310  -8259.915214 -16372.846388  -1294.615161
PE15 -14971.635866 -20231.979613 -15565.714765    834.294663
PE18  27687.974824  -4635.569189   1848.497869  -1414.919272
PE19 -17168.226184  20267.019624 -13072.161739    178.318925
PE21 -15215.032918  11737.213825 -22519.020874   -642.833294
PE24  15059.168986  11849.705983  22558.345908   -689.387279
PE25  15263.863036 -11522.167419  22594.735649   -524.317909
PE26 -21984.181053   2322.744385  19693.397723   2265.762368
PE27 -15238.687590 -11066.676701 -22828.233582     51.210595
PE30  -5750.248494 -27577.585695  -9057.858970   3263.238508
PE31   6312.246559  27242.845724   9727.812929   -477.356856
PE33  -5295.050696  15488.259425  24674.655991   -464.861091
PE36  22329.831624  -1752.487002 -19337.820336    454.299865
PG01 -21665.630051 -13590.907352   7543.839242    780.238710
PG02  10479.379332  20650.706704  13654.809692   -565.934325
PG03 -14018.269068  -5746.957346  21741.221693    -56.194549
PG04 -23078.918797  -3045.235218  12836.466523   -172.683511
PG05   4720.774562  22840.643355 -12689.871198    -30.980066
PG06  -2830.328633  16338.430928  20801.118531     -4.585123
PG07 -19104.188775   -123.650922 -18317.885463     21.449694
PG08 -17680.213054  -7571.872695 -18436.485329     -6.576402
PG09 -25585.302781   6889.187839   1931.517305   -312.688431
PG10  11670.394545 -21643.716522  -9582.462662    -39.081117
PG11 -22661.091687 -11804.789163  -6971.411302    -53.125286
PG12  11750.394070  10532.980612  21147.039817     13.006524
PG13   7454.370784  13808.374373 -21581.258498     85.867354
PG14 -13616.582477  19936.668154 -11075.767424     85.327433
PG15  19297.204649   6075.181323 -17743.414161   -176.359218
PG16  -1314.846193 -23270.192760 -12515.177153   -265.033534
PG17 -17517.849377  14191.324252  14463.739773    380.173848
PG18  17239.405045  -2554.849102 -20064.008063    341.200884
PG19 -10932.380707  14920.553573  18744.426737    -51.969564
PG20  14774.575756 -11672.288783 -18688.762370    525.167576
PG21 -21038.032334 -16571.810683    411.015967     86.770917
PG22 -12102.123129 -14658.479872  18809.863253   -698.272811
PG23  15144.106314 -12791.219269 -17683.998466    116.023063
PG24  21797.465151  15295.791281   2546.889919      3.675026
PG25  15755.826360  -4971.207113  20484.170182     59.687770
PG26   4181.865118 -26067.399446   -957.600910     29.859683
PG27  -4708.810378 -14174.936326 -22115.830107    -55.928508
PG28 -12503.423060  22209.582733  -7233.325789    629.768145
PG29  26108.384841  -4193.881249   2690.580664   -275.707769
PG30 -11369.988944  10847.885594 -21370.279423   -368.853784
PG31   1206.614105 -17923.001901  19331.628464    -93.866021
PG32  16101.549686 -15583.106318  14220.849395     14.257846
PJ01 -34674.580254  23907.471238   6791.146140   -336.538082
PJ02 -20329.984519  27216.988021 -20442.948421      0.734203
PJ03 -28323.711999  25344.679881  23243.251634     -0.113178
PJ07 -25396.962647  33663.121864      9.256240      0.057156
PR01  10843.042797 -19823.307914  11846.167695     73.482607
PR02  -6358.623742  -9023.366539  23028.737761    462.840626
PR03 -17511.559631   5848.329420  17665.901244     29.135098
PR04 -18613.228609  17279.221283   2450.901954     69.982604
PR05  -9447.446038  18999.493622 -14171.166268     64.736085
PR07  17692.293663  -6332.915104 -17192.899490    -42.174053
PR08  18568.484414 -17312.492697  -2309.333521    -56.849219
PR09  10991.242328  20860.433207   9664.643446     18.557779
PR11   6669.940634 -12587.648433  21169.449485      4.551040
PR12  -2778.428339 -24019.266599   8105.347306    196.629097
PR13 -10829.536482 -21143.173512  -9303.461817    -49.299982
PR14 -12383.484524  -5580.655921 -21583.819493     59.848849
PR15  -6783.890857  12859.204069 -20944.367366    105.894929
PR16   3758.138618  24253.683033  -7224.462620    -10.211115
PR17 -24792.280455  -5003.428867   3175.663075    391.219215
PR18 -17752.560702   3634.276318  17999.628237     63.146526
PR19  -2201.414267  10159.180086  23300.742416   -127.886367
PR20  17441.695822  11808.671922  14370.764497   -431.131329
PR21  24740.577334   4569.732565  -4280.716570   -180.368895
PR22  16741.837800  -4130.447223 -18761.655728    -92.471512
PR24 -18094.948437 -11723.741533 -13596.876318     27.765770
EOF
